HXMT (HUIYAN)           
1 42758U 17034A   26097.27548661  .00007221  00000+0  35737-3 0  9993
2 42758  43.0138 217.7011 0030545  54.0774 306.2903 15.17861924486881
SAOCOM 1A               
1 43641U 18076A   26097.24996573 -.00000159  00000+0 -13408-4 0  9995
2 43641  97.8902 285.0194 0001384  86.1673 273.9698 14.82151306405599
H-2A R/B                
1 43682U 18084L   26097.15588458  .00023184  00000+0  52874-3 0  9998
2 43682  98.8681 320.6508 0023198 284.6750  75.1922 15.42650283410168
SAOCOM 1B               
1 46265U 20059A   26097.28121382  .00000899  00000+0  11953-3 0  9997
2 46265  97.8888 284.1462 0001463  86.6685 273.4695 14.82155341302985
CSS (TIANHE)            
1 48274U 21035A   26097.24265619  .00030960  00000+0  34619-3 0  9998
2 48274  41.4683  34.2394 0003908 149.0063 211.1007 15.62057309282070
COSMOS 2550             
1 48865U 21056A   26096.88261823 -.00000182  00000+0  29521-6 0  9992
2 48865  67.1413 315.6012 0008271 269.8278  90.1929 15.33838997267789
CZ-2C R/B               
1 52794U 22058K   26097.23105422  .00036481  00000+0  48956-3 0  9993
2 52794  50.1862 171.2310 0040905 323.2008  36.6157 15.56533806214571
CZ-2C R/B               
1 54039U 22132E   26096.98616899  .00061626  00000+0  62941-3 0  9995
2 54039  97.2954 101.2200 0015110 354.5773   5.5321 15.64724233194790
GSLV R/B                
1 54149U 22138AN  26097.19948692  .00002342  00000+0  20024-3 0  9992
2 54149  87.3843 156.8156 0023329  53.0286 307.3077 14.96964559188195
XRISM                   
1 57800U 23137A   26097.03342856  .00006106  00000+0  34260-3 0  9991
2 57800  31.0016 100.2848 0007780 323.2469  36.7635 15.11851882142082
ACS3                    
1 59588U 24077B   26097.06962785  .00020257  00000+0  15764-1 0  9991
2 59588  97.1934  31.8050 0073144  13.3649 346.9431 13.91079864 98142
HTV-X1                  
1 66174U 25241A   26097.01720041  .00006605  00000+0  21824-3 0  9993
2 66174  51.6369 296.5029 0007392 282.3651  77.6503 15.32570229 25288
SZ-21 MODULE            
1 66515U 25246C   26097.13123170  .00049067  00000+0  38083-3 0  9994
2 66515  41.4755  27.9821 0003812 239.0017 121.0451 15.70946851 22549
