[{"OBJECT_NAME":"HXMT (HUIYAN)","OBJECT_ID":"2017-034A","EPOCH":"2026-04-07T06:36:42.043104","MEAN_MOTION":15.17861924,"ECCENTRICITY":0.00305453,"INCLINATION":43.0138,"RA_OF_ASC_NODE":217.7011,"ARG_OF_PERICENTER":54.0774,"MEAN_ANOMALY":306.2903,"EPHEMERIS_TYPE":0,"CLASSIFICATION_TYPE":"U","NORAD_CAT_ID":42758,"ELEMENT_SET_NO":999,"REV_AT_EPOCH":48688,"BSTAR":0.00035737457,"MEAN_MOTION_DOT":7.221e-5,"MEAN_MOTION_DDOT":0},{"OBJECT_NAME":"SAOCOM 1A","OBJECT_ID":"2018-076A","EPOCH":"2026-04-07T05:59:57.039072","MEAN_MOTION":14.82151306,"ECCENTRICITY":0.00013841,"INCLINATION":97.8902,"RA_OF_ASC_NODE":285.0194,"ARG_OF_PERICENTER":86.1673,"MEAN_ANOMALY":273.9698,"EPHEMERIS_TYPE":0,"CLASSIFICATION_TYPE":"U","NORAD_CAT_ID":43641,"ELEMENT_SET_NO":999,"REV_AT_EPOCH":40559,"BSTAR":-1.3408279e-5,"MEAN_MOTION_DOT":-1.59e-6,"MEAN_MOTION_DDOT":0},{"OBJECT_NAME":"H-2A R/B","OBJECT_ID":"2018-084L","EPOCH":"2026-04-07T03:44:28.427712","MEAN_MOTION":15.42650283,"ECCENTRICITY":0.00231985,"INCLINATION":98.8681,"RA_OF_ASC_NODE":320.6508,"ARG_OF_PERICENTER":284.675,"MEAN_ANOMALY":75.1922,"EPHEMERIS_TYPE":0,"CLASSIFICATION_TYPE":"U","NORAD_CAT_ID":43682,"ELEMENT_SET_NO":999,"REV_AT_EPOCH":41016,"BSTAR":0.00052874372,"MEAN_MOTION_DOT":0.00023184,"MEAN_MOTION_DDOT":0},{"OBJECT_NAME":"SAOCOM 1B","OBJECT_ID":"2020-059A","EPOCH":"2026-04-07T06:44:56.874048","MEAN_MOTION":14.82155341,"ECCENTRICITY":0.00014632,"INCLINATION":97.8888,"RA_OF_ASC_NODE":284.1462,"ARG_OF_PERICENTER":86.6685,"MEAN_ANOMALY":273.4695,"EPHEMERIS_TYPE":0,"CLASSIFICATION_TYPE":"U","NORAD_CAT_ID":46265,"ELEMENT_SET_NO":999,"REV_AT_EPOCH":30298,"BSTAR":0.00011953036,"MEAN_MOTION_DOT":8.99e-6,"MEAN_MOTION_DDOT":0},{"OBJECT_NAME":"CSS (TIANHE)","OBJECT_ID":"2021-035A","EPOCH":"2026-04-07T05:49:25.494816","MEAN_MOTION":15.62057309,"ECCENTRICITY":0.00039086,"INCLINATION":41.4683,"RA_OF_ASC_NODE":34.2394,"ARG_OF_PERICENTER":149.0063,"MEAN_ANOMALY":211.1007,"EPHEMERIS_TYPE":0,"CLASSIFICATION_TYPE":"U","NORAD_CAT_ID":48274,"ELEMENT_SET_NO":999,"REV_AT_EPOCH":28207,"BSTAR":0.00034619354,"MEAN_MOTION_DOT":0.0003096,"MEAN_MOTION_DDOT":0},{"OBJECT_NAME":"COSMOS 2550","OBJECT_ID":"2021-056A","EPOCH":"2026-04-06T21:10:58.215072","MEAN_MOTION":15.33838997,"ECCENTRICITY":0.00082712,"INCLINATION":67.1413,"RA_OF_ASC_NODE":315.6012,"ARG_OF_PERICENTER":269.8278,"MEAN_ANOMALY":90.1929,"EPHEMERIS_TYPE":0,"CLASSIFICATION_TYPE":"U","NORAD_CAT_ID":48865,"ELEMENT_SET_NO":999,"REV_AT_EPOCH":26778,"BSTAR":2.95211e-7,"MEAN_MOTION_DOT":-1.82e-6,"MEAN_MOTION_DDOT":0},{"OBJECT_NAME":"CZ-2C R/B","OBJECT_ID":"2022-058K","EPOCH":"2026-04-07T05:32:43.084608","MEAN_MOTION":15.56533806,"ECCENTRICITY":0.00409056,"INCLINATION":50.1862,"RA_OF_ASC_NODE":171.231,"ARG_OF_PERICENTER":323.2008,"MEAN_ANOMALY":36.6157,"EPHEMERIS_TYPE":0,"CLASSIFICATION_TYPE":"U","NORAD_CAT_ID":52794,"ELEMENT_SET_NO":999,"REV_AT_EPOCH":21457,"BSTAR":0.00048955776,"MEAN_MOTION_DOT":0.00036481,"MEAN_MOTION_DDOT":0},{"OBJECT_NAME":"CZ-2C R/B","OBJECT_ID":"2022-132E","EPOCH":"2026-04-06T23:40:05.000736","MEAN_MOTION":15.64724233,"ECCENTRICITY":0.00151106,"INCLINATION":97.2954,"RA_OF_ASC_NODE":101.22,"ARG_OF_PERICENTER":354.5773,"MEAN_ANOMALY":5.5321,"EPHEMERIS_TYPE":0,"CLASSIFICATION_TYPE":"U","NORAD_CAT_ID":54039,"ELEMENT_SET_NO":999,"REV_AT_EPOCH":19479,"BSTAR":0.00062941368,"MEAN_MOTION_DOT":0.00061626,"MEAN_MOTION_DDOT":0},{"OBJECT_NAME":"GSLV R/B","OBJECT_ID":"2022-138AN","EPOCH":"2026-04-07T04:47:15.669888","MEAN_MOTION":14.96964559,"ECCENTRICITY":0.00233297,"INCLINATION":87.3843,"RA_OF_ASC_NODE":156.8156,"ARG_OF_PERICENTER":53.0286,"MEAN_ANOMALY":307.3077,"EPHEMERIS_TYPE":0,"CLASSIFICATION_TYPE":"U","NORAD_CAT_ID":54149,"ELEMENT_SET_NO":999,"REV_AT_EPOCH":18819,"BSTAR":0.00020023519,"MEAN_MOTION_DOT":2.342e-5,"MEAN_MOTION_DDOT":0},{"OBJECT_NAME":"XRISM","OBJECT_ID":"2023-137A","EPOCH":"2026-04-07T00:48:08.227584","MEAN_MOTION":15.11851882,"ECCENTRICITY":0.00077806,"INCLINATION":31.0016,"RA_OF_ASC_NODE":100.2848,"ARG_OF_PERICENTER":323.2469,"MEAN_ANOMALY":36.7635,"EPHEMERIS_TYPE":0,"CLASSIFICATION_TYPE":"U","NORAD_CAT_ID":57800,"ELEMENT_SET_NO":999,"REV_AT_EPOCH":14208,"BSTAR":0.00034259529,"MEAN_MOTION_DOT":6.106e-5,"MEAN_MOTION_DDOT":0},{"OBJECT_NAME":"ACS3","OBJECT_ID":"2024-077B","EPOCH":"2026-04-07T01:40:15.846240","MEAN_MOTION":13.91079864,"ECCENTRICITY":0.00731445,"INCLINATION":97.1934,"RA_OF_ASC_NODE":31.805,"ARG_OF_PERICENTER":13.3649,"MEAN_ANOMALY":346.9431,"EPHEMERIS_TYPE":0,"CLASSIFICATION_TYPE":"U","NORAD_CAT_ID":59588,"ELEMENT_SET_NO":999,"REV_AT_EPOCH":9814,"BSTAR":0.01576368,"MEAN_MOTION_DOT":0.00020257,"MEAN_MOTION_DDOT":0},{"OBJECT_NAME":"HTV-X1","OBJECT_ID":"2025-241A","EPOCH":"2026-04-07T00:24:46.115424","MEAN_MOTION":15.32570229,"ECCENTRICITY":0.00073928,"INCLINATION":51.6369,"RA_OF_ASC_NODE":296.5029,"ARG_OF_PERICENTER":282.3651,"MEAN_ANOMALY":77.6503,"EPHEMERIS_TYPE":0,"CLASSIFICATION_TYPE":"U","NORAD_CAT_ID":66174,"ELEMENT_SET_NO":999,"REV_AT_EPOCH":2528,"BSTAR":0.00021824449,"MEAN_MOTION_DOT":6.605e-5,"MEAN_MOTION_DDOT":0},{"OBJECT_NAME":"SZ-21 MODULE","OBJECT_ID":"2025-246C","EPOCH":"2026-04-07T03:08:58.418880","MEAN_MOTION":15.70946851,"ECCENTRICITY":0.00038122,"INCLINATION":41.4755,"RA_OF_ASC_NODE":27.9821,"ARG_OF_PERICENTER":239.0017,"MEAN_ANOMALY":121.0451,"EPHEMERIS_TYPE":0,"CLASSIFICATION_TYPE":"U","NORAD_CAT_ID":66515,"ELEMENT_SET_NO":999,"REV_AT_EPOCH":2254,"BSTAR":0.00038082611,"MEAN_MOTION_DOT":0.00049067,"MEAN_MOTION_DDOT":0}]
